start=new Date('2023-01-31T00:00:00.000Z').valueOf();
sats=[{"CLASSIFICATION_TYPE":"U","ECCENTRICITY":"0.00013200","TLE_LINE2":"2 45233  53.0549  76.7676 0001320 100.1770 259.9367 15.06396410164205","PERIOD":"95.592","COUNTRY_CODE":"US","MEAN_MOTION_DDOT":"0.0000000000000","MEAN_ELEMENT_THEORY":"SGP4","OBJECT_NAME":"STARLINK-1238","BSTAR":"0.00000650130000","MEAN_MOTION_DOT":"-0.00000185","DECAY_DATE":null,"REF_FRAME":"TEME","OBJECT_ID":"2020-012BH","EPOCH":"2023-01-30T19:37:45.317568","ELEMENT_SET_NO":"999","OBJECT_TYPE":"PAYLOAD","SITE":"AFETR","FILE":"3765849","EPHEMERIS_TYPE":"0","MEAN_MOTION":"15.06396410","REV_AT_EPOCH":"16420","GP_ID":"224050882","ARG_OF_PERICENTER":"100.1770","TLE_LINE1":"1 45233U 20012BH  23030.81788562 -.00000185  00000-0  65013-5 0  9990","RA_OF_ASC_NODE":"76.7676","RCS_SIZE":"LARGE","TIME_SYSTEM":"UTC","NORAD_CAT_ID":"45233","APOAPSIS":"548.139","CENTER_NAME":"EARTH","LAUNCH_DATE":"2020-02-17","PERIAPSIS":"546.310","INCLINATION":"53.0549","SEMIMAJOR_AXIS":"6925.360","MEAN_ANOMALY":"259.9367"},{"SEMIMAJOR_AXIS":"6925.389","MEAN_ANOMALY":"310.4471","CENTER_NAME":"EARTH","PERIAPSIS":"545.971","LAUNCH_DATE":"2020-02-17","INCLINATION":"53.0528","EPHEMERIS_TYPE":"0","FILE":"3765576","MEAN_MOTION":"15.06386820","GP_ID":"223993187","ARG_OF_PERICENTER":"49.6679","REV_AT_EPOCH":"16384","TLE_LINE1":"1 45234U 20012BJ  23030.39215266  .00000043  00000-0  21807-4 0  9994","RA_OF_ASC_NODE":"98.6818","RCS_SIZE":"LARGE","TIME_SYSTEM":"UTC","APOAPSIS":"548.537","NORAD_CAT_ID":"45234","ELEMENT_SET_NO":"999","OBJECT_TYPE":"PAYLOAD","SITE":"AFETR","DECAY_DATE":null,"REF_FRAME":"TEME","EPOCH":"2023-01-30T09:24:41.989824","OBJECT_ID":"2020-012BJ","COUNTRY_CODE":"US","MEAN_MOTION_DDOT":"0.0000000000000","OBJECT_NAME":"STARLINK-1243","MEAN_ELEMENT_THEORY":"SGP4","BSTAR":"0.00002180700000","MEAN_MOTION_DOT":"0.00000043","TLE_LINE2":"2 45234  53.0528  98.6818 0001852  49.6679 310.4471 15.06386820163841","PERIOD":"95.593","CLASSIFICATION_TYPE":"U","ECCENTRICITY":"0.00018520"},{"REF_FRAME":"TEME","EPOCH":"2023-01-30T21:47:47.164128","OBJECT_ID":"2020-012BK","DECAY_DATE":null,"BSTAR":"0.00007649800000","MEAN_MOTION_DOT":"0.00000858","COUNTRY_CODE":"US","MEAN_MOTION_DDOT":"0.0000000000000","MEAN_ELEMENT_THEORY":"SGP4","OBJECT_NAME":"STARLINK-1246","PERIOD":"95.592","TLE_LINE2":"2 45235  53.0535  96.3652 0001077  81.9617 278.1494 15.06400358163973","ECCENTRICITY":"0.00010770","CLASSIFICATION_TYPE":"U","MEAN_ANOMALY":"278.1494","SEMIMAJOR_AXIS":"6925.347","INCLINATION":"53.0535","PERIAPSIS":"546.467","LAUNCH_DATE":"2020-02-17","CENTER_NAME":"EARTH","RCS_SIZE":"LARGE","RA_OF_ASC_NODE":"96.3652","TIME_SYSTEM":"UTC","NORAD_CAT_ID":"45235","APOAPSIS":"547.958","TLE_LINE1":"1 45235U 20012BK  23030.90818477  .00000858  00000-0  76498-4 0  9995","MEAN_MOTION":"15.06400358","GP_ID":"224051384","ARG_OF_PERICENTER":"81.9617","REV_AT_EPOCH":"16397","FILE":"3765849","EPHEMERIS_TYPE":"0","OBJECT_TYPE":"PAYLOAD","SITE":"AFETR","ELEMENT_SET_NO":"999"},{"INCLINATION":"53.0542","CENTER_NAME":"EARTH","PERIAPSIS":"546.333","LAUNCH_DATE":"2020-02-17","MEAN_ANOMALY":"277.5920","SEMIMAJOR_AXIS":"6925.374","ELEMENT_SET_NO":"999","SITE":"AFETR","OBJECT_TYPE":"PAYLOAD","TLE_LINE1":"1 45236U 20012BL  23030.75706748 -.00000059  00000-0  14949-4 0  9993","APOAPSIS":"548.146","NORAD_CAT_ID":"45236","RCS_SIZE":"LARGE","TIME_SYSTEM":"UTC","RA_OF_ASC_NODE":"57.0481","FILE":"3765849","EPHEMERIS_TYPE":"0","REV_AT_EPOCH":"16448","GP_ID":"224050134","ARG_OF_PERICENTER":"82.5218","MEAN_MOTION":"15.06391677","MEAN_MOTION_DOT":"-0.00000059","BSTAR":"0.00001494900000","OBJECT_NAME":"STARLINK-1247","MEAN_MOTION_DDOT":"0.0000000000000","MEAN_ELEMENT_THEORY":"SGP4","COUNTRY_CODE":"US","DECAY_DATE":null,"OBJECT_ID":"2020-012BL","EPOCH":"2023-01-30T18:10:10.630272","REF_FRAME":"TEME","CLASSIFICATION_TYPE":"U","ECCENTRICITY":"0.00013090","PERIOD":"95.593","TLE_LINE2":"2 45236  53.0542  57.0481 0001309  82.5218 277.5920 15.06391677164485"},{"OBJECT_NAME":"STARLINK-1270","MEAN_MOTION_DDOT":"0.0000000000000","MEAN_ELEMENT_THEORY":"SGP4","COUNTRY_CODE":"US","MEAN_MOTION_DOT":"0.00000488","BSTAR":"0.00005168100000","DECAY_DATE":null,"EPOCH":"2023-01-30T18:42:01.622880","OBJECT_ID":"2020-012BM","REF_FRAME":"TEME","CLASSIFICATION_TYPE":"U","ECCENTRICITY":"0.00014680","TLE_LINE2":"2 45237  53.0566  56.9341 0001468  81.4857 278.6299 15.06393428164496","PERIOD":"95.593","CENTER_NAME":"EARTH","LAUNCH_DATE":"2020-02-17","PERIAPSIS":"546.217","INCLINATION":"53.0566","SEMIMAJOR_AXIS":"6925.369","MEAN_ANOMALY":"278.6299","ELEMENT_SET_NO":"999","SITE":"AFETR","OBJECT_TYPE":"PAYLOAD","FILE":"3765849","EPHEMERIS_TYPE":"0","ARG_OF_PERICENTER":"81.4857","GP_ID":"224050384","REV_AT_EPOCH":"16449","MEAN_MOTION":"15.06393428","TLE_LINE1":"1 45237U 20012BM  23030.77918545  .00000488  00000-0  51681-4 0  9995","NORAD_CAT_ID":"45237","APOAPSIS":"548.250","RA_OF_ASC_NODE":"56.9341","RCS_SIZE":"LARGE","TIME_SYSTEM":"UTC"},{"MEAN_ANOMALY":"262.7569","SEMIMAJOR_AXIS":"6925.370","INCLINATION":"53.0532","CENTER_NAME":"EARTH","LAUNCH_DATE":"2020-03-18","PERIAPSIS":"546.503","TLE_LINE1":"1 45360U 20019A   23030.87040905  .00000311  00000-0  39762-4 0  9997","NORAD_CAT_ID":"45360","APOAPSIS":"547.968","TIME_SYSTEM":"UTC","RCS_SIZE":"LARGE","RA_OF_ASC_NODE":"186.5297","FILE":"3765849","EPHEMERIS_TYPE":"0","REV_AT_EPOCH":"15924","GP_ID":"224050895","ARG_OF_PERICENTER":"97.3540","MEAN_MOTION":"15.06392862","ELEMENT_SET_NO":"999","SITE":"AFETR","OBJECT_TYPE":"PAYLOAD","DECAY_DATE":null,"OBJECT_ID":"2020-019A","EPOCH":"2023-01-30T20:53:23.341920","REF_FRAME":"TEME","MEAN_MOTION_DOT":"0.00000311","BSTAR":"0.00003976200000","OBJECT_NAME":"STARLINK-1279","MEAN_MOTION_DDOT":"0.0000000000000","MEAN_ELEMENT_THEORY":"SGP4","COUNTRY_CODE":"US","PERIOD":"95.593","TLE_LINE2":"2 45360  53.0532 186.5297 0001058  97.3540 262.7569 15.06392862159248","CLASSIFICATION_TYPE":"U","ECCENTRICITY":"0.00010580"},{"TLE_LINE2":"2 45361  53.0530 197.7767 0000950  93.0766 267.0332 15.06399650159075","PERIOD":"95.592","ECCENTRICITY":"0.00009500","CLASSIFICATION_TYPE":"U","REF_FRAME":"TEME","EPOCH":"2023-01-30T14:13:58.389024","OBJECT_ID":"2020-019B","DECAY_DATE":null,"COUNTRY_CODE":"US","OBJECT_NAME":"STARLINK-1301","MEAN_MOTION_DDOT":"0.0000000000000","MEAN_ELEMENT_THEORY":"SGP4","BSTAR":"0.00011587000000","MEAN_MOTION_DOT":"0.00001445","MEAN_MOTION":"15.06399650","ARG_OF_PERICENTER":"93.0766","GP_ID":"224051147","REV_AT_EPOCH":"15907","FILE":"3765849","EPHEMERIS_TYPE":"0","RCS_SIZE":"LARGE","TIME_SYSTEM":"UTC","RA_OF_ASC_NODE":"197.7767","NORAD_CAT_ID":"45361","APOAPSIS":"547.873","TLE_LINE1":"1 45361U 20019B   23030.59303691  .00001445  00000-0  11587-3 0  9994","OBJECT_TYPE":"PAYLOAD","SITE":"AFETR","ELEMENT_SET_NO":"999","SEMIMAJOR_AXIS":"6925.350","MEAN_ANOMALY":"267.0332","LAUNCH_DATE":"2020-03-18","PERIAPSIS":"546.557","CENTER_NAME":"EARTH","INCLINATION":"53.0530"},{"CENTER_NAME":"EARTH","LAUNCH_DATE":"2020-03-18","PERIAPSIS":"546.533","INCLINATION":"53.0522","SEMIMAJOR_AXIS":"6925.368","MEAN_ANOMALY":"270.5539","ELEMENT_SET_NO":"999","OBJECT_TYPE":"PAYLOAD","SITE":"AFETR","FILE":"3765576","EPHEMERIS_TYPE":"0","MEAN_MOTION":"15.06393616","GP_ID":"223993939","REV_AT_EPOCH":"15878","ARG_OF_PERICENTER":"89.5566","TLE_LINE1":"1 45362U 20019C   23030.57276906  .00000173  00000-0  30501-4 0  9996","RCS_SIZE":"LARGE","RA_OF_ASC_NODE":"217.8692","TIME_SYSTEM":"UTC","NORAD_CAT_ID":"45362","APOAPSIS":"547.933","COUNTRY_CODE":"US","MEAN_MOTION_DDOT":"0.0000000000000","OBJECT_NAME":"STARLINK-1306","MEAN_ELEMENT_THEORY":"SGP4","BSTAR":"0.00003050100000","MEAN_MOTION_DOT":"0.00000173","DECAY_DATE":null,"REF_FRAME":"TEME","EPOCH":"2023-01-30T13:44:47.246784","OBJECT_ID":"2020-019C","CLASSIFICATION_TYPE":"U","ECCENTRICITY":"0.00010110","TLE_LINE2":"2 45362  53.0522 217.8692 0001011  89.5566 270.5539 15.06393616158786","PERIOD":"95.593"},{"SEMIMAJOR_AXIS":"6918.039","MEAN_ANOMALY":"196.5959","CENTER_NAME":"EARTH","PERIAPSIS":"538.085","LAUNCH_DATE":"2020-03-18","INCLINATION":"53.0513","EPHEMERIS_TYPE":"0","FILE":"3765576","REV_AT_EPOCH":"15919","GP_ID":"223992702","ARG_OF_PERICENTER":"163.5117","MEAN_MOTION":"15.08788148","TLE_LINE1":"1 45364U 20019E   23030.48427691  .00011388  00000-0  73341-3 0  9995","NORAD_CAT_ID":"45364","APOAPSIS":"541.723","RCS_SIZE":"LARGE","TIME_SYSTEM":"UTC","RA_OF_ASC_NODE":"187.7303","ELEMENT_SET_NO":"999","SITE":"AFETR","OBJECT_TYPE":"PAYLOAD","DECAY_DATE":null,"EPOCH":"2023-01-30T11:37:21.525024","OBJECT_ID":"2020-019E","REF_FRAME":"TEME","MEAN_MOTION_DDOT":"0.0000000000000","MEAN_ELEMENT_THEORY":"SGP4","OBJECT_NAME":"STARLINK-1313","COUNTRY_CODE":"US","MEAN_MOTION_DOT":"0.00011388","BSTAR":"0.00073341000000","TLE_LINE2":"2 45364  53.0513 187.7303 0002629 163.5117 196.5959 15.08788148159192","PERIOD":"95.441","CLASSIFICATION_TYPE":"U","ECCENTRICITY":"0.00026290"},{"SEMIMAJOR_AXIS":"6909.166","MEAN_ANOMALY":"174.9205","LAUNCH_DATE":"2020-03-18","PERIAPSIS":"530.367","CENTER_NAME":"EARTH","INCLINATION":"52.9952","MEAN_MOTION":"15.11695344","GP_ID":"224050397","ARG_OF_PERICENTER":"185.1776","REV_AT_EPOCH":"15907","EPHEMERIS_TYPE":"0","FILE":"3765849","TIME_SYSTEM":"UTC","RCS_SIZE":"LARGE","RA_OF_ASC_NODE":"194.3089","APOAPSIS":"531.696","NORAD_CAT_ID":"45365","TLE_LINE1":"1 45365U 20019F   23030.83520046  .00025499  00000-0  14925-2 0  9993","OBJECT_TYPE":"PAYLOAD","SITE":"AFETR","ELEMENT_SET_NO":"999","REF_FRAME":"TEME","OBJECT_ID":"2020-019F","EPOCH":"2023-01-30T20:02:41.319744","DECAY_DATE":null,"COUNTRY_CODE":"US","OBJECT_NAME":"STARLINK-1317","MEAN_MOTION_DDOT":"0.0000000000000","MEAN_ELEMENT_THEORY":"SGP4","BSTAR":"0.00149250000000","MEAN_MOTION_DOT":"0.00025499","TLE_LINE2":"2 45365  52.9952 194.3089 0000962 185.1776 174.9205 15.11695344159072","PERIOD":"95.257","ECCENTRICITY":"0.00009620","CLASSIFICATION_TYPE":"U"}];
